HAWK-11B                
1 62379U 24247C   26068.44730104  .00009093  00000+0  32842-3 0  9993
2 62379  45.0161 115.7610 0004690 333.0326  27.0314 15.28847070 67738
STARLINK-34363          
1 64497U 25133AB  26068.44965454  .00013108  00000+0  45497-3 0  9991
2 64497  53.1610 117.7629 0001463  77.9990 282.1175 15.30124969 41153
